OBJECT_NAME,OBJECT_ID,EPOCH,MEAN_MOTION,ECCENTRICITY,INCLINATION,RA_OF_ASC_NODE,ARG_OF_PERICENTER,MEAN_ANOMALY,EPHEMERIS_TYPE,CLASSIFICATION_TYPE,NORAD_CAT_ID,ELEMENT_SET_NO,REV_AT_EPOCH,BSTAR,MEAN_MOTION_DOT,MEAN_MOTION_DDOT
PROBA-1,2001-049B,2026-07-20T14:07:52.099680,15.07623802,.00551432,97.9602,211.2909,11.6348,348.6139,0,U,26958,999,34865,.44092429E-4,.622E-5,0
CUTE-1 (CO-55),2003-031E,2026-07-20T11:23:59.936064,14.24353565,.00108681,98.6745,209.6162,89.1638,271.0786,0,U,27844,999,19641,.81840072E-4,.146E-5,0
CUBESAT XI-IV (CO-57),2003-031J,2026-07-20T11:31:28.745184,14.23636281,.00106849,98.6776,209.3071,105.6000,254.6359,0,U,27848,999,19611,.7011484E-4,.116E-5,0
APRIZESAT 4,2009-041D,2026-07-20T18:29:06.625248,14.83918396,.0042578,98.1399,277.7585,211.0623,148.8072,0,U,35684,999,91634,.48747E-4,.352E-5,0
APRIZESAT 3,2009-041F,2026-07-20T16:03:30.235680,14.96316881,.0060685,98.2107,356.5066,317.5684,42.0852,0,U,35686,999,92138,.14029E-4,.94E-6,0
PROBA-2,2009-059B,2026-07-20T11:00:53.476128,14.54874896,.0013392,98.2463,24.3525,172.4642,187.6759,0,U,36037,999,88636,.29513214E-4,.81E-6,0
APRIZESAT 5,2011-044E,2026-07-20T18:51:52.844256,14.81132782,.0050723,98.2447,135.7807,254.2025,105.3591,0,U,37792,999,80376,.58626E-4,.405E-5,0
APRIZESAT 6,2011-044F,2026-07-20T06:51:21.119904,14.76961193,.00426471,98.2331,112.4577,341.9243,132.1235,0,U,37793,999,80203,.5866104E-4,.362E-5,0
PROBA-V,2013-021A,2026-07-20T20:32:15.446112,14.23604063,.0005028,98.3609,178.8043,46.7684,313.3915,0,U,39159,999,68590,.33191E-4,.35E-6,0
APRIZESAT 7,2013-066A,2026-07-20T19:55:16.502304,14.91627107,.0037328,97.7724,154.5708,99.3712,261.1729,0,U,39416,999,68624,.76952E-4,.725E-5,0
APRIZESAT 8,2013-066K,2026-07-20T20:07:56.849088,14.87701913,.0045981,97.8231,148.8410,173.2600,186.9245,0,U,39425,999,68467,.58582E-4,.487E-5,0
BUGSAT-1 (TITA),2014-033E,2026-07-20T20:03:27.554112,15.15912281,.0028947,98.0424,296.3611,67.7355,292.6941,0,U,40014,999,66093,.87716E-4,.162E-4,0
SAUDISAT 4,2014-033G,2026-07-20T20:46:17.031360,14.79579179,.0043831,97.7626,346.8440,325.3249,34.5107,0,U,40016,999,65105,.47671E-4,.31E-5,0
APRIZESAT 9,2014-033J,2026-07-20T20:56:40.038432,14.74257178,.0067499,97.9102,334.2554,92.0906,268.8034,0,U,40018,999,64852,.6296E-4,.379E-5,0
APRIZESAT 10,2014-033K,2026-07-20T20:50:01.476096,14.70915553,.0079173,97.9688,328.0834,165.2923,195.0614,0,U,40019,999,64720,.73952E-4,.423E-5,0
TECHDEMOSAT-1 (TDS-1),2014-037H,2026-07-20T21:00:37.901952,15.13726931,.0007337,98.3836,197.4424,142.0996,218.0751,0,U,40076,999,65332,.31056E-3,.5521E-4,0
TECHNOSAT,2017-042E,2026-07-20T16:35:06.095328,15.05128015,.0016903,97.4324,358.0846,345.2388,14.8343,0,U,42829,999,49174,.95575E-4,.1305E-4,0
FLYING LAPTOP,2017-042G,2026-07-20T20:17:12.122880,15.01335202,.0019373,97.4839,356.1180,14.5812,345.5968,0,U,42831,999,49150,.16162E-3,.2031E-4,0
HAWK-A,2018-099H,2026-07-20T02:15:27.972000,15.25001549,.00352734,97.3891,252.9053,166.8572,193.3593,0,U,43765,999,41811,.15705264E-3,.3914E-4,0
HAWK-B,2018-099AN,2026-07-20T02:08:52.334304,15.23147151,.00318699,97.3942,252.2461,184.7615,175.3324,0,U,43794,999,41804,.14076644E-3,.3298E-4,0
HAWK-C,2018-099AT,2026-07-20T09:18:58.197312,15.28539634,.00408265,97.3868,254.2731,165.5943,194.6471,0,U,43799,999,41898,.17352094E-3,.486E-4,0
SALSAT,2020-068K,2026-07-19T23:26:01.225248,15.30211220,.00097251,97.8865,206.0496,176.0322,184.0997,0,U,46495,999,32037,.14328943E-3,.4107E-4,0
HAWK-2C,2021-006CT,2026-07-20T01:49:05.646720,15.35024151,.00086607,97.2260,244.7343,87.1093,273.1142,0,U,47502,999,30454,.10645849E-3,.3542E-4,0
HAWK-2A,2021-006CW,2026-07-20T14:23:09.220128,15.35049179,.0008214,97.2303,245.9448,89.0815,271.1369,0,U,47505,999,30462,.11278E-3,.376E-4,0
HAWK-2B,2021-006CZ,2026-07-20T20:28:37.116768,15.35185099,.0008745,97.2174,244.4728,86.7227,273.5018,0,U,47508,999,30466,.15187E-3,.5114E-4,0
HAWK-3B,2021-059BE,2026-07-20T03:05:42.618336,15.72164957,.00048552,97.6637,41.0194,181.2561,178.8690,0,U,48931,999,28302,.21491603E-3,.28153E-3,0
HAWK-3C,2021-059BX,2026-07-20T19:53:26.167776,15.72210741,.0005266,97.6749,47.5312,178.9244,181.2031,0,U,48948,999,28313,.23341E-3,.30658E-3,0
HAWK-3A,2021-059CG,2026-07-20T03:05:05.583840,15.72164641,.00050492,97.6701,43.9389,183.4307,176.6922,0,U,48957,999,28302,.21024664E-3,.27537E-3,0
HAWK-5C,2022-057Y,2026-07-20T09:05:18.401280,15.52439324,.0002402,97.6629,3.2201,320.6579,39.4498,0,U,52754,999,23149,.19001E-3,.11509E-3,0
HAWK-5B,2022-057AA,2026-07-20T09:05:03.543936,15.52435528,.000307,97.6640,1.5746,306.5130,53.5839,0,U,52756,999,23149,.18984E-3,.11498E-3,0
HAWK-5A,2022-057AB,2026-07-20T16:48:51.145344,15.52446178,.0002944,97.6637,2.7481,311.2030,48.8967,0,U,52757,999,23154,.19411E-3,.11764E-3,0
HAWK-6B,2023-011A,2026-07-20T03:57:29.015424,15.23180588,.00045774,40.4981,159.6818,265.8375,94.1911,0,U,55324,999,19287,.1161883E-3,.2609E-4,0
HAWK-6C,2023-011C,2026-07-20T07:05:24.048672,15.23180433,.00050453,40.4968,155.7556,260.9756,99.0483,0,U,55326,999,19290,.10612287E-3,.2366E-4,0
HAWK-6A,2023-011D,2026-07-20T13:23:06.658944,15.23182716,.0004757,40.4979,155.8528,259.4935,100.5338,0,U,55327,999,19294,.11538E-3,.259E-4,0
HAWK-7A,2023-054P,2026-07-20T12:27:43.085088,15.27665267,.0001005,97.2653,88.0088,294.4886,65.6248,0,U,56191,999,18211,.12214E-3,.323E-4,0
HAWK-7B,2023-054R,2026-07-20T20:19:13.996992,15.27670128,.0000679,97.2678,86.6037,2.8812,357.2431,0,U,56193,999,18216,.13019E-3,.3448E-4,0
HAWK-7C,2023-054Y,2026-07-20T20:19:02.885088,15.27669625,.0000377,97.2656,87.3617,308.1723,51.9482,0,U,56200,999,18216,.13939E-3,.3697E-4,0
